{"fetched_at":"2026-07-18T06:28:12.370Z","source":"https://celestrak.org/NORAD/elements/gp.php?NAME=ICEYE&FORMAT=JSON","constellation":"iceye","records":[{"OBJECT_NAME":"ICEYE-X2","OBJECT_ID":"2018-099AU","EPOCH":"2026-07-17T22:15:26.434656","CLASSIFICATION_TYPE":"U","MEAN_MOTION":15.18057861,"ECCENTRICITY":0.00100866,"INCLINATION":97.4338,"RA_OF_ASC_NODE":252.2305,"ARG_OF_PERICENTER":184.8339,"MEAN_ANOMALY":175.28,"EPHEMERIS_TYPE":0,"NORAD_CAT_ID":43800,"ELEMENT_SET_NO":999,"REV_AT_EPOCH":41748,"BSTAR":0.00011831428,"MEAN_MOTION_DOT":0.00002344,"MEAN_MOTION_DDOT":0},{"OBJECT_NAME":"ICEYE-X4","OBJECT_ID":"2019-038D","EPOCH":"2026-07-17T21:05:05.896608","CLASSIFICATION_TYPE":"U","MEAN_MOTION":15.29916017,"ECCENTRICITY":0.00131523,"INCLINATION":97.8743,"RA_OF_ASC_NODE":233.6082,"ARG_OF_PERICENTER":188.5769,"MEAN_ANOMALY":171.5248,"EPHEMERIS_TYPE":0,"NORAD_CAT_ID":44390,"ELEMENT_SET_NO":999,"REV_AT_EPOCH":38649,"BSTAR":0.00021445486,"MEAN_MOTION_DOT":0.00006142,"MEAN_MOTION_DDOT":0},{"OBJECT_NAME":"ICEYE-X7","OBJECT_ID":"2020-068L","EPOCH":"2026-07-17T23:22:18.137856","CLASSIFICATION_TYPE":"U","MEAN_MOTION":15.32131943,"ECCENTRICITY":0.00063177,"INCLINATION":97.7513,"RA_OF_ASC_NODE":166.9165,"ARG_OF_PERICENTER":201.5161,"MEAN_ANOMALY":158.5815,"EPHEMERIS_TYPE":0,"NORAD_CAT_ID":46496,"ELEMENT_SET_NO":999,"REV_AT_EPOCH":31950,"BSTAR":0.00020202426,"MEAN_MOTION_DOT":0.00006186,"MEAN_MOTION_DDOT":0},{"OBJECT_NAME":"ICEYE-X6","OBJECT_ID":"2020-068M","EPOCH":"2026-07-17T23:34:56.966592","CLASSIFICATION_TYPE":"U","MEAN_MOTION":15.04675769,"ECCENTRICITY":0.00069883,"INCLINATION":98.0993,"RA_OF_ASC_NODE":194.1314,"ARG_OF_PERICENTER":2.5061,"MEAN_ANOMALY":357.6198,"EPHEMERIS_TYPE":0,"NORAD_CAT_ID":46497,"ELEMENT_SET_NO":999,"REV_AT_EPOCH":31786,"BSTAR":0.000098256623,"MEAN_MOTION_DOT":0.00001314,"MEAN_MOTION_DDOT":0},{"OBJECT_NAME":"ICEYE-X21","OBJECT_ID":"2023-001AS","EPOCH":"2026-06-24T05:11:18.420288","CLASSIFICATION_TYPE":"U","MEAN_MOTION":16.24069885,"ECCENTRICITY":0.00123774,"INCLINATION":97.3001,"RA_OF_ASC_NODE":262.6152,"ARG_OF_PERICENTER":285.9702,"MEAN_ANOMALY":74.0225,"EPHEMERIS_TYPE":0,"NORAD_CAT_ID":55049,"ELEMENT_SET_NO":999,"REV_AT_EPOCH":19475,"BSTAR":0.000602142,"MEAN_MOTION_DOT":0.01585954,"MEAN_MOTION_DDOT":0.000002396838},{"OBJECT_NAME":"ICEYE-X25","OBJECT_ID":"2023-084AH","EPOCH":"2026-07-17T22:35:57.282144","CLASSIFICATION_TYPE":"U","MEAN_MOTION":15.62946967,"ECCENTRICITY":0.00044305,"INCLINATION":97.5921,"RA_OF_ASC_NODE":347.3794,"ARG_OF_PERICENTER":176.8278,"MEAN_ANOMALY":183.3008,"EPHEMERIS_TYPE":0,"NORAD_CAT_ID":56963,"ELEMENT_SET_NO":999,"REV_AT_EPOCH":17277,"BSTAR":0.00020869546,"MEAN_MOTION_DOT":0.0001878,"MEAN_MOTION_DDOT":0},{"OBJECT_NAME":"ICEYE-X31","OBJECT_ID":"2023-174AJ","EPOCH":"2026-07-17T23:24:04.353696","CLASSIFICATION_TYPE":"U","MEAN_MOTION":15.35230862,"ECCENTRICITY":0.00029907,"INCLINATION":97.3767,"RA_OF_ASC_NODE":274.7256,"ARG_OF_PERICENTER":178.1384,"MEAN_ANOMALY":181.9871,"EPHEMERIS_TYPE":0,"NORAD_CAT_ID":58288,"ELEMENT_SET_NO":999,"REV_AT_EPOCH":14947,"BSTAR":0.0002878515,"MEAN_MOTION_DOT":0.00009768,"MEAN_MOTION_DDOT":0},{"OBJECT_NAME":"ICEYE-X34","OBJECT_ID":"2023-174AQ","EPOCH":"2026-07-17T19:18:12.942144","CLASSIFICATION_TYPE":"U","MEAN_MOTION":15.71880163,"ECCENTRICITY":0.00019273,"INCLINATION":97.3858,"RA_OF_ASC_NODE":291.621,"ARG_OF_PERICENTER":218.889,"MEAN_ANOMALY":141.2235,"EPHEMERIS_TYPE":0,"NORAD_CAT_ID":58294,"ELEMENT_SET_NO":999,"REV_AT_EPOCH":15054,"BSTAR":0.00083688792,"MEAN_MOTION_DOT":0.00109703,"MEAN_MOTION_DDOT":0},{"OBJECT_NAME":"ICEYE-X35","OBJECT_ID":"2023-174AY","EPOCH":"2026-07-17T22:58:28.049376","CLASSIFICATION_TYPE":"U","MEAN_MOTION":15.55354991,"ECCENTRICITY":0.00074999,"INCLINATION":97.3781,"RA_OF_ASC_NODE":284.4435,"ARG_OF_PERICENTER":98.8144,"MEAN_ANOMALY":261.396,"EPHEMERIS_TYPE":0,"NORAD_CAT_ID":58302,"ELEMENT_SET_NO":999,"REV_AT_EPOCH":15012,"BSTAR":0.00049030866,"MEAN_MOTION_DOT":0.00033325,"MEAN_MOTION_DDOT":0},{"OBJECT_NAME":"ICEYE-X38","OBJECT_ID":"2024-043C","EPOCH":"2026-07-17T22:28:59.641824","CLASSIFICATION_TYPE":"U","MEAN_MOTION":15.13105216,"ECCENTRICITY":0.00020854,"INCLINATION":97.8443,"RA_OF_ASC_NODE":343.5407,"ARG_OF_PERICENTER":13.0092,"MEAN_ANOMALY":347.1191,"EPHEMERIS_TYPE":0,"NORAD_CAT_ID":59100,"ELEMENT_SET_NO":999,"REV_AT_EPOCH":11632,"BSTAR":0.0001448001,"MEAN_MOTION_DOT":0.00002494,"MEAN_MOTION_DDOT":0},{"OBJECT_NAME":"ICEYE-X37","OBJECT_ID":"2024-043E","EPOCH":"2026-07-17T22:32:17.249856","CLASSIFICATION_TYPE":"U","MEAN_MOTION":15.06301618,"ECCENTRICITY":0.00138938,"INCLINATION":97.8346,"RA_OF_ASC_NODE":336.4328,"ARG_OF_PERICENTER":264.0132,"MEAN_ANOMALY":95.9512,"EPHEMERIS_TYPE":0,"NORAD_CAT_ID":59102,"ELEMENT_SET_NO":999,"REV_AT_EPOCH":12971,"BSTAR":0.00014266071,"MEAN_MOTION_DOT":0.00002034,"MEAN_MOTION_DDOT":0},{"OBJECT_NAME":"ICEYE-X36","OBJECT_ID":"2024-043F","EPOCH":"2026-07-17T22:11:40.908192","CLASSIFICATION_TYPE":"U","MEAN_MOTION":15.07247593,"ECCENTRICITY":0.00054917,"INCLINATION":97.8412,"RA_OF_ASC_NODE":337.5539,"ARG_OF_PERICENTER":202.9988,"MEAN_ANOMALY":157.0994,"EPHEMERIS_TYPE":0,"NORAD_CAT_ID":59103,"ELEMENT_SET_NO":999,"REV_AT_EPOCH":12977,"BSTAR":0.00016065918,"MEAN_MOTION_DOT":0.00002356,"MEAN_MOTION_DDOT":0},{"OBJECT_NAME":"ICEYE-X43","OBJECT_ID":"2024-149BZ","EPOCH":"2026-07-17T18:53:06.524448","CLASSIFICATION_TYPE":"U","MEAN_MOTION":14.99789818,"ECCENTRICITY":0.00064027,"INCLINATION":97.6792,"RA_OF_ASC_NODE":275.3412,"ARG_OF_PERICENTER":336.1221,"MEAN_ANOMALY":23.9705,"EPHEMERIS_TYPE":0,"NORAD_CAT_ID":60539,"ELEMENT_SET_NO":999,"REV_AT_EPOCH":10470,"BSTAR":0.00004833532,"MEAN_MOTION_DOT":0.00000539,"MEAN_MOTION_DDOT":0},{"OBJECT_NAME":"ICEYE-X39","OBJECT_ID":"2024-149CG","EPOCH":"2026-07-17T07:06:14.556384","CLASSIFICATION_TYPE":"U","MEAN_MOTION":15.00082591,"ECCENTRICITY":0.0006899,"INCLINATION":97.6794,"RA_OF_ASC_NODE":274.9147,"ARG_OF_PERICENTER":40.8493,"MEAN_ANOMALY":319.3246,"EPHEMERIS_TYPE":0,"NORAD_CAT_ID":60546,"ELEMENT_SET_NO":999,"REV_AT_EPOCH":10463,"BSTAR":0.00018388,"MEAN_MOTION_DOT":0.00002233,"MEAN_MOTION_DDOT":0},{"OBJECT_NAME":"ICEYE-X33","OBJECT_ID":"2024-149CJ","EPOCH":"2026-07-17T04:04:39.090432","CLASSIFICATION_TYPE":"U","MEAN_MOTION":15.00895206,"ECCENTRICITY":0.0001911,"INCLINATION":97.7369,"RA_OF_ASC_NODE":277.1615,"ARG_OF_PERICENTER":73.0376,"MEAN_ANOMALY":287.1057,"EPHEMERIS_TYPE":0,"NORAD_CAT_ID":60548,"ELEMENT_SET_NO":999,"REV_AT_EPOCH":10470,"BSTAR":0.00020545936,"MEAN_MOTION_DOT":0.00002555,"MEAN_MOTION_DDOT":0}]}
