ICEYE-X2                
1 43800U 18099AU  26198.92738929  .00002344  00000+0  11831-3 0  9996
2 43800  97.4338 252.2305 0010086 184.8339 175.2800 15.18057861417480
ICEYE-X4                
1 44390U 19038D   26198.87854047  .00006142  00000+0  21445-3 0  9991
2 44390  97.8743 233.6082 0013152 188.5769 171.5248 15.29916017386499
ICEYE-X7                
1 46496U 20068L   26198.97382104  .00006186  00000+0  20202-3 0  9994
2 46496  97.7513 166.9165 0006317 201.5161 158.5815 15.32131943319503
ICEYE-X6                
1 46497U 20068M   26198.98260378  .00001314  00000+0  98257-4 0  9998
2 46497  98.0993 194.1314 0006988   2.5061 357.6198 15.04675769317862
ICEYE-X21               
1 55049U 23001AS  26175.21618542  .01585954  23968-5  60214-3 0  9995
2 55049  97.3001 262.6152 0012377 285.9702  74.0225 16.24069885194757
ICEYE-X25               
1 56963U 23084AH  26198.94163521  .00018780  00000+0  20870-3 0  9996
2 56963  97.5921 347.3794 0004430 176.8278 183.3008 15.62946967172773
ICEYE-X31               
1 58288U 23174AJ  26198.97505039  .00009768  00000+0  28785-3 0  9994
2 58288  97.3767 274.7256 0002990 178.1384 181.9871 15.35230862149472
ICEYE-X34               
1 58294U 23174AQ  26198.80431646  .00109703  00000+0  83689-3 0  9999
2 58294  97.3858 291.6210 0001927 218.8890 141.2235 15.71880163150549
ICEYE-X35               
1 58302U 23174AY  26198.95726909  .00033325  00000+0  49031-3 0  9993
2 58302  97.3781 284.4435 0007499  98.8144 261.3960 15.55354991150121
ICEYE-X38               
1 59100U 24043C   26198.93680141  .00002494  00000+0  14480-3 0  9994
2 59100  97.8443 343.5407 0002085  13.0092 347.1191 15.13105216116322
ICEYE-X37               
1 59102U 24043E   26198.93908854  .00002034  00000+0  14266-3 0  9992
2 59102  97.8346 336.4328 0013893 264.0132  95.9512 15.06301618129719
ICEYE-X36               
1 59103U 24043F   26198.92477903  .00002356  00000+0  16066-3 0  9995
2 59103  97.8412 337.5539 0005491 202.9988 157.0994 15.07247593129777
ICEYE-X43               
1 60539U 24149BZ  26198.78688107  .00000539  00000+0  48335-4 0  9997
2 60539  97.6792 275.3412 0006402 336.1221  23.9705 14.99789818104701
ICEYE-X39               
1 60546U 24149CG  26198.29600181  .00002233  00000+0  18388-3 0  9994
2 60546  97.6794 274.9147 0006899  40.8493 319.3246 15.00082591104632
ICEYE-X33               
1 60548U 24149CJ  26198.16989688  .00002555  00000+0  20546-3 0  9990
2 60548  97.7369 277.1615 0001911  73.0376 287.1057 15.00895206104701
